{
    "type": "FeatureCollection",
    "features": [
        {
            "type": "Feature",
            "properties": {
                "code": "11",
                "name": "Hà Nội"
            },
            "geometry": {
                "type": "Polygon",
                "coordinates": [
                    [
                        [
                            105.6,
                            21.25
                        ],
                        [
                            105.65,
                            21.3
                        ],
                        [
                            105.75,
                            21.32
                        ],
                        [
                            105.85,
                            21.3
                        ],
                        [
                            105.95,
                            21.25
                        ],
                        [
                            106.0,
                            21.18
                        ],
                        [
                            106.05,
                            21.08
                        ],
                        [
                            106.05,
                            20.98
                        ],
                        [
                            106.0,
                            20.88
                        ],
                        [
                            105.95,
                            20.82
                        ],
                        [
                            105.88,
                            20.78
                        ],
                        [
                            105.8,
                            20.78
                        ],
                        [
                            105.7,
                            20.82
                        ],
                        [
                            105.62,
                            20.88
                        ],
                        [
                            105.58,
                            20.98
                        ],
                        [
                            105.58,
                            21.08
                        ],
                        [
                            105.6,
                            21.18
                        ],
                        [
                            105.6,
                            21.25
                        ]
                    ]
                ]
            }
        },
        {
            "type": "Feature",
            "properties": {
                "code": "12",
                "name": "Hồ Chí Minh"
            },
            "geometry": {
                "type": "Polygon",
                "coordinates": [
                    [
                        [
                            106.45,
                            10.75
                        ],
                        [
                            106.52,
                            10.8
                        ],
                        [
                            106.62,
                            10.82
                        ],
                        [
                            106.72,
                            10.82
                        ],
                        [
                            106.82,
                            10.78
                        ],
                        [
                            106.9,
                            10.7
                        ],
                        [
                            106.95,
                            10.6
                        ],
                        [
                            106.95,
                            10.48
                        ],
                        [
                            106.9,
                            10.38
                        ],
                        [
                            106.82,
                            10.3
                        ],
                        [
                            106.72,
                            10.26
                        ],
                        [
                            106.62,
                            10.26
                        ],
                        [
                            106.52,
                            10.3
                        ],
                        [
                            106.45,
                            10.38
                        ],
                        [
                            106.42,
                            10.48
                        ],
                        [
                            106.42,
                            10.6
                        ],
                        [
                            106.45,
                            10.75
                        ]
                    ]
                ]
            }
        },
        {
            "type": "Feature",
            "properties": {
                "code": "13",
                "name": "Đà Nẵng"
            },
            "geometry": {
                "type": "Polygon",
                "coordinates": [
                    [
                        [
                            107.85,
                            16.15
                        ],
                        [
                            107.92,
                            16.18
                        ],
                        [
                            108.02,
                            16.2
                        ],
                        [
                            108.12,
                            16.2
                        ],
                        [
                            108.22,
                            16.16
                        ],
                        [
                            108.28,
                            16.08
                        ],
                        [
                            108.3,
                            15.98
                        ],
                        [
                            108.28,
                            15.88
                        ],
                        [
                            108.22,
                            15.8
                        ],
                        [
                            108.12,
                            15.76
                        ],
                        [
                            108.02,
                            15.76
                        ],
                        [
                            107.92,
                            15.8
                        ],
                        [
                            107.85,
                            15.88
                        ],
                        [
                            107.83,
                            15.98
                        ],
                        [
                            107.85,
                            16.08
                        ],
                        [
                            107.85,
                            16.15
                        ]
                    ]
                ]
            }
        },
        {
            "type": "Feature",
            "properties": {
                "code": "14",
                "name": "Hải Phòng"
            },
            "geometry": {
                "type": "Polygon",
                "coordinates": [
                    [
                        [
                            106.45,
                            20.95
                        ],
                        [
                            106.52,
                            21.0
                        ],
                        [
                            106.62,
                            21.02
                        ],
                        [
                            106.72,
                            21.02
                        ],
                        [
                            106.82,
                            20.98
                        ],
                        [
                            106.9,
                            20.9
                        ],
                        [
                            106.95,
                            20.8
                        ],
                        [
                            106.95,
                            20.68
                        ],
                        [
                            106.9,
                            20.58
                        ],
                        [
                            106.82,
                            20.5
                        ],
                        [
                            106.72,
                            20.46
                        ],
                        [
                            106.62,
                            20.46
                        ],
                        [
                            106.52,
                            20.5
                        ],
                        [
                            106.45,
                            20.58
                        ],
                        [
                            106.42,
                            20.68
                        ],
                        [
                            106.42,
                            20.8
                        ],
                        [
                            106.45,
                            20.95
                        ]
                    ]
                ]
            }
        },
        {
            "type": "Feature",
            "properties": {
                "code": "15",
                "name": "Cần Thơ"
            },
            "geometry": {
                "type": "Polygon",
                "coordinates": [
                    [
                        [
                            105.45,
                            10.15
                        ],
                        [
                            105.52,
                            10.2
                        ],
                        [
                            105.62,
                            10.22
                        ],
                        [
                            105.72,
                            10.22
                        ],
                        [
                            105.82,
                            10.18
                        ],
                        [
                            105.9,
                            10.1
                        ],
                        [
                            105.92,
                            10.0
                        ],
                        [
                            105.9,
                            9.9
                        ],
                        [
                            105.82,
                            9.82
                        ],
                        [
                            105.72,
                            9.78
                        ],
                        [
                            105.62,
                            9.78
                        ],
                        [
                            105.52,
                            9.82
                        ],
                        [
                            105.45,
                            9.9
                        ],
                        [
                            105.43,
                            10.0
                        ],
                        [
                            105.45,
                            10.15
                        ]
                    ]
                ]
            }
        },
        {
            "type": "Feature",
            "properties": {
                "code": "16",
                "name": "Huế"
            },
            "geometry": {
                "type": "Polygon",
                "coordinates": [
                    [
                        [
                            107.25,
                            16.45
                        ],
                        [
                            107.32,
                            16.5
                        ],
                        [
                            107.42,
                            16.52
                        ],
                        [
                            107.52,
                            16.52
                        ],
                        [
                            107.62,
                            16.48
                        ],
                        [
                            107.7,
                            16.4
                        ],
                        [
                            107.75,
                            16.3
                        ],
                        [
                            107.75,
                            16.18
                        ],
                        [
                            107.7,
                            16.08
                        ],
                        [
                            107.62,
                            16.0
                        ],
                        [
                            107.52,
                            15.96
                        ],
                        [
                            107.42,
                            15.96
                        ],
                        [
                            107.32,
                            16.0
                        ],
                        [
                            107.25,
                            16.08
                        ],
                        [
                            107.22,
                            16.18
                        ],
                        [
                            107.22,
                            16.3
                        ],
                        [
                            107.25,
                            16.45
                        ]
                    ]
                ]
            }
        },
        {
            "type": "Feature",
            "properties": {
                "code": "17",
                "name": "An Giang"
            },
            "geometry": {
                "type": "Polygon",
                "coordinates": [
                    [
                        [
                            104.95,
                            10.45
                        ],
                        [
                            105.02,
                            10.5
                        ],
                        [
                            105.12,
                            10.52
                        ],
                        [
                            105.22,
                            10.52
                        ],
                        [
                            105.32,
                            10.48
                        ],
                        [
                            105.4,
                            10.4
                        ],
                        [
                            105.45,
                            10.3
                        ],
                        [
                            105.45,
                            10.18
                        ],
                        [
                            105.4,
                            10.08
                        ],
                        [
                            105.32,
                            10.0
                        ],
                        [
                            105.22,
                            9.96
                        ],
                        [
                            105.12,
                            9.96
                        ],
                        [
                            105.02,
                            10.0
                        ],
                        [
                            104.95,
                            10.08
                        ],
                        [
                            104.92,
                            10.18
                        ],
                        [
                            104.92,
                            10.3
                        ],
                        [
                            104.95,
                            10.45
                        ]
                    ]
                ]
            }
        },
        {
            "type": "Feature",
            "properties": {
                "code": "18",
                "name": "Bắc Ninh"
            },
            "geometry": {
                "type": "Polygon",
                "coordinates": [
                    [
                        [
                            105.95,
                            21.15
                        ],
                        [
                            106.02,
                            21.2
                        ],
                        [
                            106.12,
                            21.22
                        ],
                        [
                            106.22,
                            21.22
                        ],
                        [
                            106.32,
                            21.18
                        ],
                        [
                            106.4,
                            21.1
                        ],
                        [
                            106.42,
                            21.0
                        ],
                        [
                            106.4,
                            20.9
                        ],
                        [
                            106.32,
                            20.82
                        ],
                        [
                            106.22,
                            20.78
                        ],
                        [
                            106.12,
                            20.78
                        ],
                        [
                            106.02,
                            20.82
                        ],
                        [
                            105.95,
                            20.9
                        ],
                        [
                            105.93,
                            21.0
                        ],
                        [
                            105.95,
                            21.15
                        ]
                    ]
                ]
            }
        },
        {
            "type": "Feature",
            "properties": {
                "code": "19",
                "name": "Cà Mau"
            },
            "geometry": {
                "type": "Polygon",
                "coordinates": [
                    [
                        [
                            104.85,
                            9.15
                        ],
                        [
                            104.92,
                            9.2
                        ],
                        [
                            105.02,
                            9.22
                        ],
                        [
                            105.12,
                            9.22
                        ],
                        [
                            105.22,
                            9.18
                        ],
                        [
                            105.3,
                            9.1
                        ],
                        [
                            105.35,
                            9.0
                        ],
                        [
                            105.35,
                            8.88
                        ],
                        [
                            105.3,
                            8.78
                        ],
                        [
                            105.22,
                            8.7
                        ],
                        [
                            105.12,
                            8.66
                        ],
                        [
                            105.02,
                            8.66
                        ],
                        [
                            104.92,
                            8.7
                        ],
                        [
                            104.85,
                            8.78
                        ],
                        [
                            104.82,
                            8.88
                        ],
                        [
                            104.82,
                            9.0
                        ],
                        [
                            104.85,
                            9.15
                        ]
                    ]
                ]
            }
        },
        {
            "type": "Feature",
            "properties": {
                "code": "20",
                "name": "Cao Bằng"
            },
            "geometry": {
                "type": "Polygon",
                "coordinates": [
                    [
                        [
                            105.95,
                            22.65
                        ],
                        [
                            106.02,
                            22.7
                        ],
                        [
                            106.12,
                            22.72
                        ],
                        [
                            106.22,
                            22.72
                        ],
                        [
                            106.32,
                            22.68
                        ],
                        [
                            106.4,
                            22.6
                        ],
                        [
                            106.45,
                            22.5
                        ],
                        [
                            106.45,
                            22.38
                        ],
                        [
                            106.4,
                            22.28
                        ],
                        [
                            106.32,
                            22.2
                        ],
                        [
                            106.22,
                            22.16
                        ],
                        [
                            106.12,
                            22.16
                        ],
                        [
                            106.02,
                            22.2
                        ],
                        [
                            105.95,
                            22.28
                        ],
                        [
                            105.92,
                            22.38
                        ],
                        [
                            105.92,
                            22.5
                        ],
                        [
                            105.95,
                            22.65
                        ]
                    ]
                ]
            }
        }
    ]
}