{
    "type": "FeatureCollection",
    "features": [
        {
            "type": "Feature",
            "properties": {
                "code": "11",
                "name": "Hà Nội",
                "name_with_type": "Thành phố Hà Nội"
            },
            "geometry": {
                "type": "Polygon",
                "coordinates": [
                    [
                        [
                            105.6,
                            21.2
                        ],
                        [
                            105.7,
                            21.25
                        ],
                        [
                            105.85,
                            21.3
                        ],
                        [
                            105.95,
                            21.25
                        ],
                        [
                            106.0,
                            21.15
                        ],
                        [
                            106.05,
                            21.0
                        ],
                        [
                            105.95,
                            20.9
                        ],
                        [
                            105.85,
                            20.85
                        ],
                        [
                            105.7,
                            20.9
                        ],
                        [
                            105.6,
                            21.0
                        ],
                        [
                            105.6,
                            21.2
                        ]
                    ]
                ]
            }
        },
        {
            "type": "Feature",
            "properties": {
                "code": "12",
                "name": "Hồ Chí Minh",
                "name_with_type": "Thành phố Hồ Chí Minh"
            },
            "geometry": {
                "type": "Polygon",
                "coordinates": [
                    [
                        [
                            106.5,
                            10.6
                        ],
                        [
                            106.6,
                            10.65
                        ],
                        [
                            106.75,
                            10.7
                        ],
                        [
                            106.85,
                            10.65
                        ],
                        [
                            106.9,
                            10.55
                        ],
                        [
                            106.85,
                            10.45
                        ],
                        [
                            106.75,
                            10.4
                        ],
                        [
                            106.6,
                            10.45
                        ],
                        [
                            106.5,
                            10.5
                        ],
                        [
                            106.5,
                            10.6
                        ]
                    ]
                ]
            }
        },
        {
            "type": "Feature",
            "properties": {
                "code": "13",
                "name": "Đà Nẵng",
                "name_with_type": "Thành phố Đà Nẵng"
            },
            "geometry": {
                "type": "Polygon",
                "coordinates": [
                    [
                        [
                            107.9,
                            16.0
                        ],
                        [
                            108.0,
                            16.05
                        ],
                        [
                            108.15,
                            16.1
                        ],
                        [
                            108.25,
                            16.05
                        ],
                        [
                            108.25,
                            15.95
                        ],
                        [
                            108.15,
                            15.9
                        ],
                        [
                            108.0,
                            15.9
                        ],
                        [
                            107.9,
                            15.95
                        ],
                        [
                            107.9,
                            16.0
                        ]
                    ]
                ]
            }
        },
        {
            "type": "Feature",
            "properties": {
                "code": "14",
                "name": "Hải Phòng",
                "name_with_type": "Thành phố Hải Phòng"
            },
            "geometry": {
                "type": "Polygon",
                "coordinates": [
                    [
                        [
                            106.5,
                            20.8
                        ],
                        [
                            106.6,
                            20.85
                        ],
                        [
                            106.75,
                            20.9
                        ],
                        [
                            106.85,
                            20.85
                        ],
                        [
                            106.9,
                            20.75
                        ],
                        [
                            106.85,
                            20.65
                        ],
                        [
                            106.7,
                            20.6
                        ],
                        [
                            106.55,
                            20.65
                        ],
                        [
                            106.5,
                            20.75
                        ],
                        [
                            106.5,
                            20.8
                        ]
                    ]
                ]
            }
        },
        {
            "type": "Feature",
            "properties": {
                "code": "15",
                "name": "Cần Thơ",
                "name_with_type": "Thành phố Cần Thơ"
            },
            "geometry": {
                "type": "Polygon",
                "coordinates": [
                    [
                        [
                            105.5,
                            10.0
                        ],
                        [
                            105.6,
                            10.05
                        ],
                        [
                            105.75,
                            10.1
                        ],
                        [
                            105.85,
                            10.05
                        ],
                        [
                            105.85,
                            9.95
                        ],
                        [
                            105.75,
                            9.9
                        ],
                        [
                            105.6,
                            9.9
                        ],
                        [
                            105.5,
                            9.95
                        ],
                        [
                            105.5,
                            10.0
                        ]
                    ]
                ]
            }
        },
        {
            "type": "Feature",
            "properties": {
                "code": "16",
                "name": "Huế",
                "name_with_type": "Thành phố Huế"
            },
            "geometry": {
                "type": "Polygon",
                "coordinates": [
                    [
                        [
                            107.3,
                            16.3
                        ],
                        [
                            107.4,
                            16.35
                        ],
                        [
                            107.55,
                            16.4
                        ],
                        [
                            107.65,
                            16.35
                        ],
                        [
                            107.65,
                            16.25
                        ],
                        [
                            107.55,
                            16.2
                        ],
                        [
                            107.4,
                            16.2
                        ],
                        [
                            107.3,
                            16.25
                        ],
                        [
                            107.3,
                            16.3
                        ]
                    ]
                ]
            }
        }
    ]
}